STARLINK-37781          
1 69341U 26122N   26164.91668981  .00014556  00000+0  76629-4 0  9997
2 69341  97.2829 194.1990 0000754  89.4538 235.8780 15.80809442  2824
STARLINK-37782          
1 69342U 26122P   26164.91668981 -.01133596  00000+0 -57510-2 0  9993
2 69342  97.2822 194.2197 0001262  77.5054 297.1701 15.84197977  2825
STARLINK-37776          
1 69343U 26122Q   26164.91668981 -.01135334  00000+0 -57202-2 0  9994
2 69343  97.2823 194.2213 0001275  76.8456 302.6024 15.84346339  2826
STARLINK-37786          
1 69344U 26122R   26164.91668981 -.02170637  00000+0 -10885-1 0  9996
2 69344  97.2829 194.2275 0001488  75.7305 316.5232 15.84964829  2823
STARLINK-37785          
1 69345U 26122S   26164.91668981 -.01127572  00000+0 -55459-2 0  9993
2 69345  97.2825 194.2277 0001221  75.2745 317.7257 15.84828535  2823
STARLINK-37773          
1 69346U 26122T   26164.91668981 -.01327736  00000+0 -75331-2 0  9999
2 69346  97.2832 194.2293 0000930 101.5774 295.2766 15.81823812  2871
STARLINK-37744          
1 69347U 26122U   26164.91668981 -.02253150  00000+0 -12488-1 0  9992
2 69347  97.2834 194.2334 0001509  66.6654 337.7701 15.83021389  2828
STARLINK-37775          
1 69348U 26122V   26164.91668981 -.02351758  00000+0 -12659-1 0  9996
2 69348  97.2837 194.2287 0001421  65.4709 327.7324 15.83199743  2820
STARLINK-37777          
1 69349U 26122W   26164.91668981 -.00035223  00000+0 -18408-3 0  9991
2 69349  97.2835 194.2296 0001290  71.3828 324.6107 15.80792814  2821
STARLINK-37779          
1 69350U 26122X   26164.91668981  .00087055  00000+0  45185-3 0  9993
2 69350  97.2840 194.2332 0001023  57.8551 345.0052 15.80760624  2826
STARLINK-37549          
1 69351U 26122Y   26164.91668981 -.00102122  00000+0 -53906-3 0  9999
2 69351  97.2841 194.2273 0003358  94.8135 292.5688 15.80790028  2826
STARLINK-37778          
1 69352U 26122Z   26164.91668981  .00099517  00000+0  51557-3 0  9991
2 69352  97.2841 194.2362 0001386  63.8226 346.3568 15.80765066  2821
STARLINK-37651          
1 69353U 26123A   26164.91668981  .00002270  00000+0  15041-4 0  9992
2 69353  53.1587 258.1978 0001163  95.3960  86.8631 15.80869861  2624
STARLINK-37652          
1 69354U 26123B   26164.91668981 -.00072365  00000+0 -36559-3 0  9993
2 69354  53.1589 258.2118 0000794  80.6543  95.1048 15.80907655  2626
STARLINK-37593          
1 69355U 26123C   26164.91668981 -.00026934  00000+0 -13320-3 0  9996
2 69355  53.1588 258.2005 0001048  61.6647 119.0479 15.80895672  2672
STARLINK-37597          
1 69356U 26123D   26164.91668981 -.00017625  00000+0 -85883-4 0  9998
2 69356  53.1590 258.1817 0001074  92.7692  97.2203 15.80886943  2673
STARLINK-37598          
1 69357U 26123E   26164.91668981 -.00024378  00000+0 -12023-3 0  9997
2 69357  53.1593 258.1568 0001201  87.2840 114.6499 15.80887431  2670
STARLINK-37602          
1 69358U 26123F   26164.91668981 -.00054479  00000+0 -27380-3 0  9995
2 69358  53.1590 258.1472 0001288 103.7507 103.0665 15.80904787  2672
STARLINK-37600          
1 69359U 26123G   26164.91668981 -.00026983  00000+0 -13345-3 0  9991
2 69359  53.1594 258.1128 0001298  58.3590 165.2690 15.80895297  2676
STARLINK-37599          
1 69360U 26123H   26164.91668981 -.02032236  00000+0 -10819-1 0  9994
2 69360  53.1584 258.0383 0001133  80.7169 178.6488 15.82923901  2622
STARLINK-37039          
1 69361U 26123J   26164.91668981 -.00029589  00000+0 -14677-3 0  9998
2 69361  53.1594 258.0918 0001360  79.8937 153.0746 15.80888738  2622
STARLINK-37040          
1 69362U 26123K   26164.91668981 -.02002454  00000+0 -77103-2 0  9995
2 69362  53.1573 257.9273 0000734  61.1171 251.4437 15.89432502  2623
STARLINK-37582          
1 69363U 26123L   26164.91668981 -.00212586  00000+0 -10938-2 0  9996
2 69363  53.1589 258.0357 0001001  43.9871 216.2260 15.80998103  2627
STARLINK-37309          
1 69364U 26123M   26164.91668981 -.02213824  13196-2 -65021-2 0  9991
2 69364  53.1566 257.8562 0000662  61.0570 285.9301 15.92208136  2764
STARLINK-37436          
1 69365U 26123N   26164.91668981 -.02259515  13759-2 -65388-2 0  9990
2 69365  53.1566 257.8228 0000752  70.3510 292.5762 15.92496658  2764
STARLINK-37581          
1 69366U 26123P   26164.91668981 -.01887562  00000+0 -69834-2 0  9991
2 69366  53.1567 257.8326 0000768  62.8880 295.3877 15.90541363  2612
STARLINK-37683          
1 69367U 26123Q   26164.91668981 -.02223302  13255-2 -66495-2 0  9998
2 69367  53.1566 257.8072 0000619  65.9609 304.4967 15.91859613  2622
STARLINK-37687          
1 69368U 26123R   26164.91668981 -.02246791  13563-2 -66195-2 0  9995
2 69368  53.1566 257.7653 0001167  32.8855 357.7099 15.92150586  2623
STARLINK-37631          
1 69369U 26123S   26164.91668981 -.02111975  11968-2 -64817-2 0  9997
2 69369  53.1561 257.7573 0000840  58.3352 336.2500 15.91346964  2672
