OBJECT_NAME,OBJECT_ID,EPOCH,MEAN_MOTION,ECCENTRICITY,INCLINATION,RA_OF_ASC_NODE,ARG_OF_PERICENTER,MEAN_ANOMALY,EPHEMERIS_TYPE,CLASSIFICATION_TYPE,NORAD_CAT_ID,ELEMENT_SET_NO,REV_AT_EPOCH,BSTAR,MEAN_MOTION_DOT,MEAN_MOTION_DDOT
STARLINK-37781,2026-122N,2026-06-13T22:00:01.999584,15.80809442,.0000754,97.2829,194.1990,89.4538,235.8780,0,U,69341,999,282,.76629394E-4,.14556E-3,0
STARLINK-37782,2026-122P,2026-06-13T22:00:01.999584,15.84197977,.00012628,97.2822,194.2197,77.5054,297.1701,0,U,69342,999,282,-.57510289E-2,-.1133596E-1,0
STARLINK-37776,2026-122Q,2026-06-13T22:00:01.999584,15.84346339,.00012758,97.2823,194.2213,76.8456,302.6024,0,U,69343,999,282,-.57202236E-2,-.1135334E-1,0
STARLINK-37786,2026-122R,2026-06-13T22:00:01.999584,15.84964829,.00014883,97.2829,194.2275,75.7305,316.5232,0,U,69344,999,282,-.10884556E-1,-.2170637E-1,0
STARLINK-37785,2026-122S,2026-06-13T22:00:01.999584,15.84828535,.00012216,97.2825,194.2277,75.2745,317.7257,0,U,69345,999,282,-.55458565E-2,-.1127572E-1,0
STARLINK-37773,2026-122T,2026-06-13T22:00:01.999584,15.81823812,.00009307,97.2832,194.2293,101.5774,295.2766,0,U,69346,999,287,-.75331172E-2,-.1327736E-1,0
STARLINK-37744,2026-122U,2026-06-13T22:00:01.999584,15.83021389,.00015098,97.2834,194.2334,66.6654,337.7701,0,U,69347,999,282,-.12487972E-1,-.225315E-1,0
STARLINK-37775,2026-122V,2026-06-13T22:00:01.999584,15.83199743,.0001421,97.2837,194.2287,65.4709,327.7324,0,U,69348,999,282,-.12659417E-1,-.2351758E-1,0
STARLINK-37777,2026-122W,2026-06-13T22:00:01.999584,15.80792814,.00012903,97.2835,194.2296,71.3828,324.6107,0,U,69349,999,282,-.18408493E-3,-.35223E-3,0
STARLINK-37779,2026-122X,2026-06-13T22:00:01.999584,15.80760624,.0001023,97.2840,194.2332,57.8551,345.0052,0,U,69350,999,282,.45184965E-3,.87055E-3,0
STARLINK-37549,2026-122Y,2026-06-13T22:00:01.999584,15.80790028,.00033583,97.2841,194.2273,94.8135,292.5688,0,U,69351,999,282,-.53905729E-3,-.102122E-2,0
STARLINK-37778,2026-122Z,2026-06-13T22:00:01.999584,15.80765066,.00013864,97.2841,194.2362,63.8226,346.3568,0,U,69352,999,282,.51557357E-3,.99517E-3,0
STARLINK-37651,2026-123A,2026-06-13T22:00:01.999584,15.80869861,.00011639,53.1587,258.1978,95.3960,86.8631,0,U,69353,999,262,.15041084E-4,.227E-4,0
STARLINK-37652,2026-123B,2026-06-13T22:00:01.999584,15.80907655,.00007946,53.1589,258.2118,80.6543,95.1048,0,U,69354,999,262,-.36558861E-3,-.72365E-3,0
STARLINK-37593,2026-123C,2026-06-13T22:00:01.999584,15.80895672,.00010489,53.1588,258.2005,61.6647,119.0479,0,U,69355,999,267,-.13320225E-3,-.26934E-3,0
STARLINK-37597,2026-123D,2026-06-13T22:00:01.999584,15.80886943,.00010747,53.1590,258.1817,92.7692,97.2203,0,U,69356,999,267,-.85882708E-4,-.17625E-3,0
STARLINK-37598,2026-123E,2026-06-13T22:00:01.999584,15.80887431,.00012011,53.1593,258.1568,87.2840,114.6499,0,U,69357,999,267,-.12023098E-3,-.24378E-3,0
STARLINK-37602,2026-123F,2026-06-13T22:00:01.999584,15.80904787,.00012888,53.1590,258.1472,103.7507,103.0665,0,U,69358,999,267,-.2737987E-3,-.54479E-3,0
STARLINK-37600,2026-123G,2026-06-13T22:00:01.999584,15.80895297,.00012988,53.1594,258.1128,58.3590,165.2690,0,U,69359,999,267,-.13344596E-3,-.26983E-3,0
STARLINK-37599,2026-123H,2026-06-13T22:00:01.999584,15.82923901,.00011333,53.1584,258.0383,80.7169,178.6488,0,U,69360,999,262,-.10818525E-1,-.2032236E-1,0
STARLINK-37039,2026-123J,2026-06-13T22:00:01.999584,15.80888738,.00013604,53.1594,258.0918,79.8937,153.0746,0,U,69361,999,262,-.14676732E-3,-.29589E-3,0
STARLINK-37040,2026-123K,2026-06-13T22:00:01.999584,15.89432502,.00007344,53.1573,257.9273,61.1171,251.4437,0,U,69362,999,262,-.77102797E-2,-.2002454E-1,0
STARLINK-37582,2026-123L,2026-06-13T22:00:01.999584,15.80998103,.00010012,53.1589,258.0357,43.9871,216.2260,0,U,69363,999,262,-.10938402E-2,-.212586E-2,0
STARLINK-37309,2026-123M,2026-06-13T22:00:01.999584,15.92208136,.00006629,53.1566,257.8562,61.0570,285.9301,0,U,69364,999,276,-.6502102E-2,-.2213824E-1,.13195783E-2
STARLINK-37436,2026-123N,2026-06-13T22:00:01.999584,15.92496658,.00007529,53.1566,257.8228,70.3510,292.5762,0,U,69365,999,276,-.65388108E-2,-.2259515E-1,.13758957E-2
STARLINK-37581,2026-123P,2026-06-13T22:00:01.999584,15.90541363,.00007684,53.1567,257.8326,62.8880,295.3877,0,U,69366,999,261,-.6983382E-2,-.1887562E-1,0
STARLINK-37683,2026-123Q,2026-06-13T22:00:01.999584,15.91859613,.00006196,53.1566,257.8072,65.9609,304.4967,0,U,69367,999,262,-.66494808E-2,-.2223302E-1,.13255E-2
STARLINK-37687,2026-123R,2026-06-13T22:00:01.999584,15.92150586,.00011674,53.1566,257.7653,32.8855,357.7099,0,U,69368,999,262,-.66195462E-2,-.2246791E-1,.13562847E-2
STARLINK-37631,2026-123S,2026-06-13T22:00:01.999584,15.91346964,.00008401,53.1561,257.7573,58.3352,336.2500,0,U,69369,999,267,-.64817468E-2,-.2111975E-1,.11968076E-2
